GLOBALSTAR M063         
1 26081U 00008A   25056.35616532 -.00000063  00000+0  28562-3 0  9999
2 26081  51.9967  46.0926 0004925 100.4600  47.6668 11.86166336144304
GLOBALSTAR M062         
1 26082U 00008B   25056.48571650 -.00000107  00000+0 -62593-4 0  9998
2 26082  51.9853  64.2602 0006836 231.9279 252.0647 12.43459713482725
GLOBALSTAR M060         
1 26083U 00008C   25056.61466619  .00000063  00000+0  15263-2 0  9991
2 26083  52.0049   8.1051 0002932 260.4494 270.9869 12.17656127138956
GLOBALSTAR M064         
1 26084U 00008D   25056.54332426 -.00000080  00000+0  46405-4 0  9996
2 26084  52.0024 145.7460 0001874 178.7498 181.3340 11.88530076153824
GLOBALSTAR M065         
1 31571U 07020A   25056.80959458  .00000005  00000+0  60690-3 0  9990
2 31571  51.9877 205.2650 0010923  64.4011  83.1403 12.61993799819640
GLOBALSTAR M069         
1 31573U 07020C   25056.61032856 -.00000097  00000+0  12952-4 0  9996
2 31573  51.9939 170.1397 0001604 103.9844 269.4264 12.47308329820300
GLOBALSTAR M072         
1 31574U 07020D   25056.39510102 -.00000041  00000+0  59011-3 0  9992
2 31574  52.0156 289.5641 0001877  99.1314  71.9960 11.91776925818137
GLOBALSTAR M071         
1 31576U 07020F   25056.61600870 -.00000135  00000+0 -43040-3 0  9991
2 31576  52.0049 183.4644 0000816 167.0978 206.0699 12.18249421481343
